IRIDIUM 63              
1 25286U 98021B   26016.44990553  .00000308  00000+0  97835-4 0  9993
2 25286  86.3999 352.6469 0002019  83.5488 276.5939 14.36768476454468
IRIDIUM 69              
1 25319U 98026A   26016.42949889  .00000275  00000+0  78976-4 0  9997
2 25319  86.3980   5.2687 0004211  62.7932 297.3697 14.41250198453775
IRIDIUM 71              
1 25320U 98026B   26016.48338979  .00000226  00000+0  63535-4 0  9998
2 25320  86.3984 359.9168 0004265  96.0002 264.1684 14.41342825454319
IRIDIUM 73              
1 25344U 98032C   26016.58041069  .00000435  00000+0  10239-3 0  9997
2 25344  86.4436 316.1852 0002329  68.7440 291.4014 14.52044812461522
IRIDIUM 82              
1 25467U 98051A   26016.42049899  .00034393  00000+0  57367-3 0  9999
2 25467  86.3594   3.5979 0056571 193.6423 166.3312 15.49957595456765
